CCSDS_OMM_VERS = 2.0
CREATION_DATE  = 
ORIGINATOR     = 

OBJECT_NAME    = STARLINK-36067
OBJECT_ID      = 2025-288G
CENTER_NAME    = EARTH
REF_FRAME      = TEME
TIME_SYSTEM    = UTC
MEAN_ELEMENT_THEORY = SGP/SGP4

EPOCH          = 2026-01-07T07:11:54.051360
MEAN_MOTION    = 15.40732712
ECCENTRICITY   = .0002101
INCLINATION    = 43.0039
RA_OF_ASC_NODE = 14.9163
ARG_OF_PERICENTER = 266.0599
MEAN_ANOMALY   = 94.0017

EPHEMERIS_TYPE = 0
CLASSIFICATION_TYPE = U
NORAD_CAT_ID   = 66965
ELEMENT_SET_NO = 999
REV_AT_EPOCH   = 584
BSTAR          = .13229E-2
MEAN_MOTION_DOT = .55421E-3
MEAN_MOTION_DDOT = 0

CCSDS_OMM_VERS = 2.0
CREATION_DATE  = 
ORIGINATOR     = 

OBJECT_NAME    = STARLINK-36139
OBJECT_ID      = 2025-288H
CENTER_NAME    = EARTH
REF_FRAME      = TEME
TIME_SYSTEM    = UTC
MEAN_ELEMENT_THEORY = SGP/SGP4

EPOCH          = 2026-01-07T12:00:01.999296
MEAN_MOTION    = 15.40648649
ECCENTRICITY   = .0001295
INCLINATION    = 43.0012
RA_OF_ASC_NODE = 13.3429
ARG_OF_PERICENTER = 275.0641
MEAN_ANOMALY   = 290.2894

EPHEMERIS_TYPE = 0
CLASSIFICATION_TYPE = U
NORAD_CAT_ID   = 66966
ELEMENT_SET_NO = 999
REV_AT_EPOCH   = 596
BSTAR          = .20154E-2
MEAN_MOTION_DOT = .84679E-3
MEAN_MOTION_DDOT = 0

CCSDS_OMM_VERS = 2.0
CREATION_DATE  = 
ORIGINATOR     = 

OBJECT_NAME    = STARLINK-36136
OBJECT_ID      = 2025-288J
CENTER_NAME    = EARTH
REF_FRAME      = TEME
TIME_SYSTEM    = UTC
MEAN_ELEMENT_THEORY = SGP/SGP4

EPOCH          = 2026-01-07T12:00:01.999296
MEAN_MOTION    = 15.40652019
ECCENTRICITY   = .0001433
INCLINATION    = 43.0013
RA_OF_ASC_NODE = 13.4031
ARG_OF_PERICENTER = 278.0578
MEAN_ANOMALY   = 262.4067

EPHEMERIS_TYPE = 0
CLASSIFICATION_TYPE = U
NORAD_CAT_ID   = 66967
ELEMENT_SET_NO = 999
REV_AT_EPOCH   = 596
BSTAR          = .20391E-2
MEAN_MOTION_DOT = .857E-3
MEAN_MOTION_DDOT = 0

CCSDS_OMM_VERS = 2.0
CREATION_DATE  = 
ORIGINATOR     = 

OBJECT_NAME    = STARLINK-36152
OBJECT_ID      = 2025-288K
CENTER_NAME    = EARTH
REF_FRAME      = TEME
TIME_SYSTEM    = UTC
MEAN_ELEMENT_THEORY = SGP/SGP4

EPOCH          = 2026-01-07T12:00:01.999296
MEAN_MOTION    = 15.43161706
ECCENTRICITY   = .0000884
INCLINATION    = 43.0006
RA_OF_ASC_NODE = 13.1968
ARG_OF_PERICENTER = 261.3862
MEAN_ANOMALY   = 4.4944

EPHEMERIS_TYPE = 0
CLASSIFICATION_TYPE = U
NORAD_CAT_ID   = 66968
ELEMENT_SET_NO = 999
REV_AT_EPOCH   = 596
BSTAR          = -.72129E-1
MEAN_MOTION_DOT = -.289871E-1
MEAN_MOTION_DDOT = 0

CCSDS_OMM_VERS = 2.0
CREATION_DATE  = 
ORIGINATOR     = 

OBJECT_NAME    = STARLINK-36149
OBJECT_ID      = 2025-288L
CENTER_NAME    = EARTH
REF_FRAME      = TEME
TIME_SYSTEM    = UTC
MEAN_ELEMENT_THEORY = SGP/SGP4

EPOCH          = 2026-01-07T08:51:42.660864
MEAN_MOTION    = 15.40716576
ECCENTRICITY   = .000128
INCLINATION    = 43.0014
RA_OF_ASC_NODE = 14.5758
ARG_OF_PERICENTER = 257.5517
MEAN_ANOMALY   = 102.5197

EPHEMERIS_TYPE = 0
CLASSIFICATION_TYPE = U
NORAD_CAT_ID   = 66969
ELEMENT_SET_NO = 999
REV_AT_EPOCH   = 585
BSTAR          = .1428E-2
MEAN_MOTION_DOT = .5985E-3
MEAN_MOTION_DDOT = 0

CCSDS_OMM_VERS = 2.0
CREATION_DATE  = 
ORIGINATOR     = 

OBJECT_NAME    = STARLINK-35703
OBJECT_ID      = 2025-288M
CENTER_NAME    = EARTH
REF_FRAME      = TEME
TIME_SYSTEM    = UTC
MEAN_ELEMENT_THEORY = SGP/SGP4

EPOCH          = 2026-01-07T12:00:01.999296
MEAN_MOTION    = 15.40657794
ECCENTRICITY   = .0001518
INCLINATION    = 43.0012
RA_OF_ASC_NODE = 13.3103
ARG_OF_PERICENTER = 243.3079
MEAN_ANOMALY   = 334.4705

EPHEMERIS_TYPE = 0
CLASSIFICATION_TYPE = U
NORAD_CAT_ID   = 66970
ELEMENT_SET_NO = 999
REV_AT_EPOCH   = 596
BSTAR          = .2033E-2
MEAN_MOTION_DOT = .85456E-3
MEAN_MOTION_DDOT = 0

CCSDS_OMM_VERS = 2.0
CREATION_DATE  = 
ORIGINATOR     = 

OBJECT_NAME    = STARLINK-35678
OBJECT_ID      = 2025-288N
CENTER_NAME    = EARTH
REF_FRAME      = TEME
TIME_SYSTEM    = UTC
MEAN_ELEMENT_THEORY = SGP/SGP4

EPOCH          = 2026-01-07T07:39:12.994560
MEAN_MOTION    = 15.50145761
ECCENTRICITY   = .0006139
INCLINATION    = 43.0013
RA_OF_ASC_NODE = 14.1856
ARG_OF_PERICENTER = 127.0010
MEAN_ANOMALY   = 233.1412

EPHEMERIS_TYPE = 0
CLASSIFICATION_TYPE = U
NORAD_CAT_ID   = 66971
ELEMENT_SET_NO = 999
REV_AT_EPOCH   = 585
BSTAR          = .14912E-2
MEAN_MOTION_DOT = .86818E-3
MEAN_MOTION_DDOT = 0

CCSDS_OMM_VERS = 2.0
CREATION_DATE  = 
ORIGINATOR     = 

OBJECT_NAME    = STARLINK-34846
OBJECT_ID      = 2025-288P
CENTER_NAME    = EARTH
REF_FRAME      = TEME
TIME_SYSTEM    = UTC
MEAN_ELEMENT_THEORY = SGP/SGP4

EPOCH          = 2026-01-07T12:00:01.999296
MEAN_MOTION    = 15.40653060
ECCENTRICITY   = .000151
INCLINATION    = 43.0013
RA_OF_ASC_NODE = 13.3729
ARG_OF_PERICENTER = 264.4539
MEAN_ANOMALY   = 288.4613

EPHEMERIS_TYPE = 0
CLASSIFICATION_TYPE = U
NORAD_CAT_ID   = 66972
ELEMENT_SET_NO = 999
REV_AT_EPOCH   = 596
BSTAR          = .2072E-2
MEAN_MOTION_DOT = .87109E-3
MEAN_MOTION_DDOT = 0

CCSDS_OMM_VERS = 2.0
CREATION_DATE  = 
ORIGINATOR     = 

OBJECT_NAME    = STARLINK-35778
OBJECT_ID      = 2025-288Q
CENTER_NAME    = EARTH
REF_FRAME      = TEME
TIME_SYSTEM    = UTC
MEAN_ELEMENT_THEORY = SGP/SGP4

EPOCH          = 2026-01-07T07:05:27.287808
MEAN_MOTION    = 15.40725070
ECCENTRICITY   = .0000927
INCLINATION    = 43.0017
RA_OF_ASC_NODE = 14.8823
ARG_OF_PERICENTER = 246.9736
MEAN_ANOMALY   = 113.1023

EPHEMERIS_TYPE = 0
CLASSIFICATION_TYPE = U
NORAD_CAT_ID   = 66973
ELEMENT_SET_NO = 999
REV_AT_EPOCH   = 584
BSTAR          = .88754E-3
MEAN_MOTION_DOT = .36981E-3
MEAN_MOTION_DDOT = 0

CCSDS_OMM_VERS = 2.0
CREATION_DATE  = 
ORIGINATOR     = 

OBJECT_NAME    = STARLINK-35780
OBJECT_ID      = 2025-288R
CENTER_NAME    = EARTH
REF_FRAME      = TEME
TIME_SYSTEM    = UTC
MEAN_ELEMENT_THEORY = SGP/SGP4

EPOCH          = 2026-01-07T08:32:21.269472
MEAN_MOTION    = 15.40716950
ECCENTRICITY   = .0001541
INCLINATION    = 43.0001
RA_OF_ASC_NODE = 14.4737
ARG_OF_PERICENTER = 268.5439
MEAN_ANOMALY   = 91.5241

EPHEMERIS_TYPE = 0
CLASSIFICATION_TYPE = U
NORAD_CAT_ID   = 66974
ELEMENT_SET_NO = 999
REV_AT_EPOCH   = 585
BSTAR          = .11497E-2
MEAN_MOTION_DOT = .48053E-3
MEAN_MOTION_DDOT = 0

CCSDS_OMM_VERS = 2.0
CREATION_DATE  = 
ORIGINATOR     = 

OBJECT_NAME    = STARLINK-35777
OBJECT_ID      = 2025-288S
CENTER_NAME    = EARTH
REF_FRAME      = TEME
TIME_SYSTEM    = UTC
MEAN_ELEMENT_THEORY = SGP/SGP4

EPOCH          = 2026-01-07T10:02:28.934880
MEAN_MOTION    = 15.40730665
ECCENTRICITY   = .000124
INCLINATION    = 43.0015
RA_OF_ASC_NODE = 14.0819
ARG_OF_PERICENTER = 264.1046
MEAN_ANOMALY   = 95.9669

EPHEMERIS_TYPE = 0
CLASSIFICATION_TYPE = U
NORAD_CAT_ID   = 66975
ELEMENT_SET_NO = 999
REV_AT_EPOCH   = 586
BSTAR          = .14132E-2
MEAN_MOTION_DOT = .59247E-3
MEAN_MOTION_DDOT = 0

CCSDS_OMM_VERS = 2.0
CREATION_DATE  = 
ORIGINATOR     = 

OBJECT_NAME    = STARLINK-35772
OBJECT_ID      = 2025-288T
CENTER_NAME    = EARTH
REF_FRAME      = TEME
TIME_SYSTEM    = UTC
MEAN_ELEMENT_THEORY = SGP/SGP4

EPOCH          = 2026-01-07T08:52:37.451424
MEAN_MOTION    = 15.40741233
ECCENTRICITY   = .0001534
INCLINATION    = 43.0025
RA_OF_ASC_NODE = 16.3530
ARG_OF_PERICENTER = 254.6710
MEAN_ANOMALY   = 105.3978

EPHEMERIS_TYPE = 0
CLASSIFICATION_TYPE = U
NORAD_CAT_ID   = 66976
ELEMENT_SET_NO = 999
REV_AT_EPOCH   = 583
BSTAR          = .15426E-2
MEAN_MOTION_DOT = .64773E-3
MEAN_MOTION_DDOT = 0

