STARLINK-36067          
1 66965U 25288G   26007.29993115  .00055421  00000+0  13229-2 0  9996
2 66965  43.0039  14.9163 0002101 266.0599  94.0017 15.40732712  5848
STARLINK-36139          
1 66966U 25288H   26007.50002314  .00084679  00000+0  20154-2 0  9995
2 66966  43.0012  13.3429 0001295 275.0641 290.2894 15.40648649  5960
STARLINK-36136          
1 66967U 25288J   26007.50002314  .00085700  00000+0  20391-2 0  9995
2 66967  43.0013  13.4031 0001433 278.0578 262.4067 15.40652019  5967
STARLINK-36152          
1 66968U 25288K   26007.50002314 -.02898710  00000+0 -72129-1 0  9998
2 66968  43.0006  13.1968 0000884 261.3862   4.4944 15.43161706  5965
STARLINK-36149          
1 66969U 25288L   26007.36924376  .00059850  00000+0  14280-2 0  9999
2 66969  43.0014  14.5758 0001280 257.5517 102.5197 15.40716576  5858
STARLINK-35703          
1 66970U 25288M   26007.50002314  .00085456  00000+0  20330-2 0  9990
2 66970  43.0012  13.3103 0001518 243.3079 334.4705 15.40657794  5968
STARLINK-35678          
1 66971U 25288N   26007.31890040  .00086818  00000+0  14912-2 0  9993
2 66971  43.0013  14.1856 0006139 127.0010 233.1412 15.50145761  5856
STARLINK-34846          
1 66972U 25288P   26007.50002314  .00087109  00000+0  20720-2 0  9992
2 66972  43.0013  13.3729 0001510 264.4539 288.4613 15.40653060  5960
STARLINK-35778          
1 66973U 25288Q   26007.29545472  .00036981  00000+0  88754-3 0  9990
2 66973  43.0017  14.8823 0000927 246.9736 113.1023 15.40725070  5848
STARLINK-35780          
1 66974U 25288R   26007.35580173  .00048053  00000+0  11497-2 0  9997
2 66974  43.0001  14.4737 0001541 268.5439  91.5241 15.40716950  5854
STARLINK-35777          
1 66975U 25288S   26007.41839045  .00059247  00000+0  14132-2 0  9996
2 66975  43.0015  14.0819 0001240 264.1046  95.9669 15.40730665  5861
STARLINK-35772          
1 66976U 25288T   26007.36987791  .00064773  00000+0  15426-2 0  9990
2 66976  43.0025  16.3530 0001534 254.6710 105.3978 15.40741233  5835
